NORAD_CAT_ID,OBJECT_NAME,OBJECT_TYPE,EPOCH,MEAN_MOTION,ECCENTRICITY,INCLINATION,RA_OF_ASC_NODE,ARG_OF_PERICENTER,MEAN_ANOMALY,BSTAR,MEAN_MOTION_DOT,MEAN_MOTION_DDOT,TLE_LINE0,TLE_LINE1,TLE_LINE2,SEMIMAJOR_AXIS,PERIOD,APOGEE,PERIGEE,DECAYED
53432.0,STARLINK-4557,PAYLOAD,2022-08-26 22:00:00,15.73217771,0.0001013,53.2197,165.2624,80.8651,22.9579,2.1341e-05,2.379e-05,0.0,0 STARLINK-4557,1 53432U 22097AW  22238.91667824  .00002379  00000-0  21341-4 0  9993,2 53432  53.2197 165.2624 0001013  80.8651  22.9579 15.73217771  1304,6727.845,91.532,350.391,349.028,0.0
53432.0,STARLINK-4557,PAYLOAD,2022-08-27 14:00:01,15.73181405,0.0001142,53.2201,161.9632,80.7657,200.9882,0.00035341,0.0004923,0.0,0 STARLINK-4557,1 53432U 22097AW  22239.58334491  .00049230  00000-0  35341-3 0  9999,2 53432  53.2201 161.9632 0001142  80.7657 200.9882 15.73181405  1309,6727.948,91.534,350.582,349.045,0.0
53432.0,STARLINK-4557,PAYLOAD,2022-08-27 22:00:00,15.73259804,0.0001176,53.2203,160.3144,79.4189,291.2462,-0.00052697,-0.00074115,0.0,0 STARLINK-4557,1 53432U 22097AW  22239.91667824 -.00074115  00000-0 -52697-3 0  9990,2 53432  53.2203 160.3144 0001176  79.4189 291.2462 15.73259804  1300,6727.725,91.53,350.381,348.798,0.0
53432.0,STARLINK-4557,PAYLOAD,2022-08-28 06:00:00,15.73198368,0.0001157,53.2199,158.6664,69.4187,30.2374,9.2879e-05,0.00012433,0.0,0 STARLINK-4557,1 53432U 22097AW  22240.25001157  .00012433  00000-0  92879-4 0  9990,2 53432  53.2199 158.6664 0001157  69.4187  30.2374 15.73198368  3275,6727.9,91.533,350.543,348.986,0.0
53432.0,STARLINK-4557,PAYLOAD,2022-08-28 14:00:01,15.73189565,0.0001209,53.2198,157.0152,83.55,105.0052,-3.8826e-05,-6.062e-05,0.0,0 STARLINK-4557,1 53432U 22097AW  22240.58334491 -.00006062  00000-0 -38826-4 0  9991,2 53432  53.2198 157.0152 0001209  83.5500 105.0052 15.73189565  3322,6727.925,91.534,350.603,348.977,0.0
53432.0,STARLINK-4557,PAYLOAD,2022-08-28 22:00:00,15.73219637,0.0001088,53.2199,155.3668,83.6684,193.7855,-0.00039077,-0.00055148,0.0,0 STARLINK-4557,1 53432U 22097AW  22240.91667824 -.00055148  00000-0 -39077-3 0  9994,2 53432  53.2199 155.3668 0001088  83.6684 193.7855 15.73219637  1300,6727.839,91.532,350.436,348.972,0.0
53432.0,STARLINK-4557,PAYLOAD,2022-08-29 14:00:01,15.733301999999998,0.0001082999999999,53.2188,152.0627,83.1932,12.1328,-0.0026499,-0.00359067,0.0,0 STARLINK-4557,1 53432U 22097AW  22241.58334491 -.00359067  00000-0 -26499-2 0  9999,2 53432  53.2188 152.0627 0001083  83.1932  12.1328 15.73330200  1302,6727.524,91.526,350.11800000000005,348.66,0.0
53432.0,STARLINK-4557,PAYLOAD,2022-08-29 16:00:00,15.7324726,0.0001171999999999,53.2183,151.649,85.7631,121.8246,-0.0020778,-0.00283191,0.0,0 STARLINK-4557,1 53432U 22097AW  22241.66667824 -.00283191  00000-0 -20778-2 0  9995,2 53432  53.2183 151.6490 0001172  85.7631 121.8246 15.73247260  3495,6727.76,91.53,350.414,348.837,0.0
53432.0,STARLINK-4557,PAYLOAD,2022-08-29 22:00:00,15.73216974,9.51e-05,53.2202,150.4187,79.1961,105.0801,8.469e-05,0.0001129,0.0,0 STARLINK-4557,1 53432U 22097AW  22241.91667824  .00011290  00000-0  84690-4 0  9995,2 53432  53.2202 150.4187 0000951  79.1961 105.0801 15.73216974  1301,6727.847,91.532,350.352,349.07199999999995,0.0
53432.0,STARLINK-4557,PAYLOAD,2022-08-30 14:00:01,15.73200537,0.0001139,53.2195,147.1188,85.5474,276.6472,-5.6456e-07,-6.99e-06,0.0,0 STARLINK-4557,1 53432U 22097AW  22242.58334491 -.00000699  00000-0 -56456-6 0  9994,2 53432  53.2195 147.1188 0001139  85.5474 276.6472 15.73200537  1302,6727.894,91.533,350.525,348.992,0.0
53432.0,STARLINK-4557,PAYLOAD,2022-08-30 22:00:00,15.73186311,0.0001271,53.2195,145.4708,83.2901,7.8352,-4.721100000000001e-05,-7.236e-05,0.0,0 STARLINK-4557,1 53432U 22097AW  22242.91667824 -.00007236  00000-0 -47211-4 0  9991,2 53432  53.2195 145.4708 0001271  83.2901   7.8352 15.73186311  1302,6727.934,91.534,350.654,348.944,0.0
53432.0,STARLINK-4557,PAYLOAD,2022-08-31 14:00:01,15.73131227,9.67e-05,53.2195,142.1707,87.7327,181.2023,0.00063817,0.00089637,0.0,0 STARLINK-4557,1 53432U 22097AW  22243.58334491  .00089637  00000-0  63817-3 0  9998,2 53432  53.2195 142.1707 0000967  87.7327 181.2023 15.73131227  1305,6728.090999999999,91.537,350.607,349.306,0.0
53432.0,STARLINK-4557,PAYLOAD,2022-08-31 20:00:01,15.73194711,0.0001042,53.2198,140.9345,85.6998,159.884,0.00011149,0.00015051,0.0,0 STARLINK-4557,1 53432U 22097AW  22243.83334491  .00015051  00000-0  11149-3 0  9996,2 53432  53.2198 140.9345 0001042  85.6998 159.8840 15.73194711  3833,6727.91,91.533,350.476,349.074,0.0
53432.0,STARLINK-4557,PAYLOAD,2022-08-31 22:00:00,15.732027300000002,0.0001063,53.2197,140.5227,80.3597,277.4529,2.8218000000000013e-05,3.343e-05,0.0,0 STARLINK-4557,1 53432U 22097AW  22243.91667824  .00003343  00000-0  28218-4 0  9991,2 53432  53.2197 140.5227 0001063  80.3597 277.4529 15.73202730  1309,6727.887,91.533,350.468,349.037,0.0
53432.0,STARLINK-4557,PAYLOAD,2022-09-01 14:00:01,15.73169756,0.0001137,53.2191,137.2224,87.9753,87.79,0.00041738,0.00058287,0.0,0 STARLINK-4557,1 53432U 22097AW  22244.58335648  .00058287  00000-0  41738-3 0  9999,2 53432  53.2191 137.2224 0001137  87.9753  87.7900 15.73169756  1307,6727.981,91.535,350.611,349.081,0.0
53432.0,STARLINK-4557,PAYLOAD,2022-09-01 22:00:00,15.73216091,0.0001252,53.2192,135.5748,82.2826,182.3325,0.00010042,0.00013505,0.0,0 STARLINK-4557,1 53432U 22097AW  22244.91667824  .00013505  00000-0  10042-3 0  9998,2 53432  53.2192 135.5748 0001252  82.2826 182.3325 15.73216091  4005,6727.849,91.532,350.557,348.872,0.0
53432.0,STARLINK-4557,PAYLOAD,2022-09-02 14:00:01,15.73192421,0.0001281999999999,53.2194,132.2741,89.1407,353.3837,-0.00018244,-0.00026136,0.0,0 STARLINK-4557,1 53432U 22097AW  22245.58334491 -.00026136  00000-0 -18244-3 0  9991,2 53432  53.2194 132.2741 0001282  89.1407 353.3837 15.73192421  1306,6727.917,91.534,350.644,348.9190000000001,0.0
53432.0,STARLINK-4557,PAYLOAD,2022-09-02 22:00:01,15.73162827,0.0001195,53.2196,130.6263,80.546,90.9614,9.7808e-05,0.00013107,0.0,0 STARLINK-4557,1 53432U 22097AW  22245.91668981  .00013107  00000-0  97808-4 0  9998,2 53432  53.2196 130.6263 0001195  80.5460  90.9614 15.73162827  1300,6728.001,91.535,350.67,349.06199999999984,0.0
53432.0,STARLINK-4557,PAYLOAD,2022-09-03 06:00:00,15.73190897,0.0001125,53.2193,128.9772,76.0002,184.3248,0.00013968,0.0001902,0.0,0 STARLINK-4557,1 53432U 22097AW  22246.25001157  .00019020  00000-0  13968-3 0  9996,2 53432  53.2193 128.9772 0001125  76.0002 184.3248 15.73190897  4219,6727.920999999999,91.534,350.543,349.029,0.0
53432.0,STARLINK-4557,PAYLOAD,2022-09-03 14:00:01,15.73194071,0.0001049,53.2194,127.3262,90.06200000000004,259.2001,0.00067362,0.00094968,0.0,0 STARLINK-4557,1 53432U 22097AW  22246.58334491  .00094968  00000-0  67362-3 0  9993,2 53432  53.2194 127.3262 0001049  90.0620 259.2001 15.73194071  1308,6727.9119999999975,91.534,350.483,349.071,0.0
53432.0,STARLINK-4557,PAYLOAD,2022-09-03 22:00:00,15.73281726,9.51e-05,53.2191,125.6786,79.8673,358.3535,-0.00063261,-0.00088776,0.0,0 STARLINK-4557,1 53432U 22097AW  22246.91667824 -.00088776  00000-0 -63261-3 0  9995,2 53432  53.2191 125.6786 0000951  79.8673 358.3535 15.73281726  4323,6727.6619999999975,91.528,350.167,348.88699999999994,0.0
53432.0,STARLINK-4557,PAYLOAD,2022-09-04 06:00:00,15.73262696,8.77e-05,53.2181,124.0292,75.1813,92.0097,-0.0003359,-0.00047619,0.0,0 STARLINK-4557,1 53432U 22097AW  22247.25001157 -.00047619  00000-0 -33590-3 0  9997,2 53432  53.2181 124.0292 0000877  75.1813  92.0097 15.73262696  4374,6727.715999999999,91.53,350.171,348.991,0.0
53432.0,STARLINK-4557,PAYLOAD,2022-09-04 14:00:01,15.73196915,9.95e-05,53.2179,122.3777,89.3954,166.8549,0.00029786,0.00041383,0.0,0 STARLINK-4557,1 53432U 22097AW  22247.58335648  .00041383  00000-0  29786-3 0  9990,2 53432  53.2179 122.3777 0000995  89.3954 166.8549 15.73196915  1306,6727.904,91.533,350.43800000000016,349.1,0.0
53432.0,STARLINK-4557,PAYLOAD,2022-09-04 16:00:00,15.73252538,0.0001053,53.2183,121.9656,89.2014,279.2236,-1.6244000000000002e-05,-2.904e-05,0.0,0 STARLINK-4557,1 53432U 22097AW  22247.66667824 -.00002904  00000-0 -16244-4 0  9997,2 53432  53.2183 121.9656 0001053  89.2014 279.2236 15.73252538  4437,6727.745,91.53,350.319,348.902,0.0
53432.0,STARLINK-4557,PAYLOAD,2022-09-04 20:00:01,15.73283947,0.0001087,53.2183,121.1421,84.0181,148.8967,-0.00074046,-0.00103636,0.0,0 STARLINK-4557,1 53432U 22097AW  22247.83334491 -.00103636  00000-0 -74046-3 0  9994,2 53432  53.2183 121.1421 0001087  84.0181 148.8967 15.73283947  1307,6727.656,91.528,350.25199999999984,348.79,0.0
53432.0,STARLINK-4557,PAYLOAD,2022-09-05 04:00:00,15.73179526,0.0001024,53.2181,119.4934,72.3787,249.5218,0.00047471,0.00066472,0.0,0 STARLINK-4557,1 53432U 22097AW  22248.16667824  .00066472  00000-0  47471-3 0  9996,2 53432  53.2181 119.4934 0001024  72.3787 249.5218 15.73179526  4518,6727.954000000002,91.534,350.50699999999995,349.13,0.0
53432.0,STARLINK-4557,PAYLOAD,2022-09-05 14:00:01,15.73243896,0.0001016,53.2182,117.4297,91.0032,72.0535,-0.00035632,-0.0005042,0.0,0 STARLINK-4557,1 53432U 22097AW  22248.58334491 -.00050420  00000-0 -35632-3 0  9997,2 53432  53.2182 117.4297 0001016  91.0032  72.0535 15.73243896  4581,6727.77,91.531,350.319,348.951,0.0
53432.0,STARLINK-4557,PAYLOAD,2022-09-05 22:00:00,15.73189801,0.0001036,53.2181,115.7824,76.233,175.7898,-0.00070971,-0.00099012,0.0,0 STARLINK-4557,1 53432U 22097AW  22248.91667824 -.00099012  00000-0 -70971-3 0  9998,2 53432  53.2181 115.7824 0001036  76.2330 175.7898 15.73189801  1300,6727.924,91.534,350.486,349.092,0.0
53432.0,STARLINK-4557,PAYLOAD,2022-09-06 06:00:00,15.7312568,9.23e-05,53.2179,114.1326,76.642,264.2577,-0.00010323,-0.00015034,0.0,0 STARLINK-4557,1 53432U 22097AW  22249.25001157 -.00015034  00000-0 -10323-3 0  9994,2 53432  53.2179 114.1326 0000923  76.6420 264.2577 15.73125680  4682,6728.107,91.538,350.593,349.351,0.0
